CCSDS_OMM_VERS = 2.0
CREATION_DATE  = 
ORIGINATOR     = 

OBJECT_NAME    = STARLINK-35865
OBJECT_ID      = 2026-033F
CENTER_NAME    = EARTH
REF_FRAME      = TEME
TIME_SYSTEM    = UTC
MEAN_ELEMENT_THEORY = SGP/SGP4

EPOCH          = 2026-02-23T16:00:03.000096
MEAN_MOTION    = 15.89351952
ECCENTRICITY   = .0001804
INCLINATION    = 42.9992
RA_OF_ASC_NODE = 357.4773
ARG_OF_PERICENTER = 255.3497
MEAN_ANOMALY   = 30.8045

EPHEMERIS_TYPE = 0
CLASSIFICATION_TYPE = U
NORAD_CAT_ID   = 67826
ELEMENT_SET_NO = 999
REV_AT_EPOCH   = 241
BSTAR          = -.60674E-2
MEAN_MOTION_DOT = -.1603418E-1
MEAN_MOTION_DDOT = 0

CCSDS_OMM_VERS = 2.0
CREATION_DATE  = 
ORIGINATOR     = 

OBJECT_NAME    = STARLINK-36289
OBJECT_ID      = 2026-033G
CENTER_NAME    = EARTH
REF_FRAME      = TEME
TIME_SYSTEM    = UTC
MEAN_ELEMENT_THEORY = SGP/SGP4

EPOCH          = 2026-02-23T16:00:03.000096
MEAN_MOTION    = 15.89533450
ECCENTRICITY   = .0001826
INCLINATION    = 42.9992
RA_OF_ASC_NODE = 357.4699
ARG_OF_PERICENTER = 258.4952
MEAN_ANOMALY   = 30.6095

EPHEMERIS_TYPE = 0
CLASSIFICATION_TYPE = U
NORAD_CAT_ID   = 67827
ELEMENT_SET_NO = 999
REV_AT_EPOCH   = 241
BSTAR          = -.60187E-2
MEAN_MOTION_DOT = -.1605189E-1
MEAN_MOTION_DDOT = 0

CCSDS_OMM_VERS = 2.0
CREATION_DATE  = 
ORIGINATOR     = 

OBJECT_NAME    = STARLINK-36670
OBJECT_ID      = 2026-033H
CENTER_NAME    = EARTH
REF_FRAME      = TEME
TIME_SYSTEM    = UTC
MEAN_ELEMENT_THEORY = SGP/SGP4

EPOCH          = 2026-02-23T16:00:03.000096
MEAN_MOTION    = 15.89715164
ECCENTRICITY   = .0001821
INCLINATION    = 42.9992
RA_OF_ASC_NODE = 357.4627
ARG_OF_PERICENTER = 258.3938
MEAN_ANOMALY   = 33.5450

EPHEMERIS_TYPE = 0
CLASSIFICATION_TYPE = U
NORAD_CAT_ID   = 67828
ELEMENT_SET_NO = 999
REV_AT_EPOCH   = 241
BSTAR          = -.59492E-2
MEAN_MOTION_DOT = -.1602002E-1
MEAN_MOTION_DDOT = 0

CCSDS_OMM_VERS = 2.0
CREATION_DATE  = 
ORIGINATOR     = 

OBJECT_NAME    = STARLINK-36144
OBJECT_ID      = 2026-033J
CENTER_NAME    = EARTH
REF_FRAME      = TEME
TIME_SYSTEM    = UTC
MEAN_ELEMENT_THEORY = SGP/SGP4

EPOCH          = 2026-02-23T16:00:03.000096
MEAN_MOTION    = 15.89890865
ECCENTRICITY   = .0001891
INCLINATION    = 42.9993
RA_OF_ASC_NODE = 357.4553
ARG_OF_PERICENTER = 258.8714
MEAN_ANOMALY   = 35.9613

EPHEMERIS_TYPE = 0
CLASSIFICATION_TYPE = U
NORAD_CAT_ID   = 67829
ELEMENT_SET_NO = 999
REV_AT_EPOCH   = 241
BSTAR          = -.58805E-2
MEAN_MOTION_DOT = -.1598474E-1
MEAN_MOTION_DDOT = 0

CCSDS_OMM_VERS = 2.0
CREATION_DATE  = 
ORIGINATOR     = 

OBJECT_NAME    = STARLINK-36611
OBJECT_ID      = 2026-033K
CENTER_NAME    = EARTH
REF_FRAME      = TEME
TIME_SYSTEM    = UTC
MEAN_ELEMENT_THEORY = SGP/SGP4

EPOCH          = 2026-02-23T16:00:03.000096
MEAN_MOTION    = 15.90069746
ECCENTRICITY   = .0001813
INCLINATION    = 42.9994
RA_OF_ASC_NODE = 357.4483
ARG_OF_PERICENTER = 258.0239
MEAN_ANOMALY   = 39.5896

EPHEMERIS_TYPE = 0
CLASSIFICATION_TYPE = U
NORAD_CAT_ID   = 67830
ELEMENT_SET_NO = 999
REV_AT_EPOCH   = 241
BSTAR          = -.58098E-2
MEAN_MOTION_DOT = -.1594386E-1
MEAN_MOTION_DDOT = 0

CCSDS_OMM_VERS = 2.0
CREATION_DATE  = 
ORIGINATOR     = 

OBJECT_NAME    = STARLINK-36661
OBJECT_ID      = 2026-033L
CENTER_NAME    = EARTH
REF_FRAME      = TEME
TIME_SYSTEM    = UTC
MEAN_ELEMENT_THEORY = SGP/SGP4

EPOCH          = 2026-02-23T16:00:03.000096
MEAN_MOTION    = 15.90257813
ECCENTRICITY   = .0001801
INCLINATION    = 42.9992
RA_OF_ASC_NODE = 357.4419
ARG_OF_PERICENTER = 263.0159
MEAN_ANOMALY   = 37.1365

EPHEMERIS_TYPE = 0
CLASSIFICATION_TYPE = U
NORAD_CAT_ID   = 67831
ELEMENT_SET_NO = 999
REV_AT_EPOCH   = 241
BSTAR          = -.5715E-2
MEAN_MOTION_DOT = -.1585008E-1
MEAN_MOTION_DDOT = 0

CCSDS_OMM_VERS = 2.0
CREATION_DATE  = 
ORIGINATOR     = 

OBJECT_NAME    = STARLINK-36662
OBJECT_ID      = 2026-033M
CENTER_NAME    = EARTH
REF_FRAME      = TEME
TIME_SYSTEM    = UTC
MEAN_ELEMENT_THEORY = SGP/SGP4

EPOCH          = 2026-02-23T16:00:03.000096
MEAN_MOTION    = 15.98659987
ECCENTRICITY   = .0002043
INCLINATION    = 42.9988
RA_OF_ASC_NODE = 357.1693
ARG_OF_PERICENTER = 267.0366
MEAN_ANOMALY   = 140.5839

EPHEMERIS_TYPE = 0
CLASSIFICATION_TYPE = U
NORAD_CAT_ID   = 67832
ELEMENT_SET_NO = 999
REV_AT_EPOCH   = 241
BSTAR          = -.2095E-2
MEAN_MOTION_DOT = -.1034846E-1
MEAN_MOTION_DDOT = .34414E-3

CCSDS_OMM_VERS = 2.0
CREATION_DATE  = 
ORIGINATOR     = 

OBJECT_NAME    = STARLINK-36659
OBJECT_ID      = 2026-033N
CENTER_NAME    = EARTH
REF_FRAME      = TEME
TIME_SYSTEM    = UTC
MEAN_ELEMENT_THEORY = SGP/SGP4

EPOCH          = 2026-02-23T16:00:03.000096
MEAN_MOTION    = 15.90424035
ECCENTRICITY   = .0001906
INCLINATION    = 42.9993
RA_OF_ASC_NODE = 357.4348
ARG_OF_PERICENTER = 259.4578
MEAN_ANOMALY   = 43.5915

EPHEMERIS_TYPE = 0
CLASSIFICATION_TYPE = U
NORAD_CAT_ID   = 67833
ELEMENT_SET_NO = 999
REV_AT_EPOCH   = 241
BSTAR          = -.56607E-2
MEAN_MOTION_DOT = -.1583802E-1
MEAN_MOTION_DDOT = 0

CCSDS_OMM_VERS = 2.0
CREATION_DATE  = 
ORIGINATOR     = 

OBJECT_NAME    = STARLINK-36655
OBJECT_ID      = 2026-033P
CENTER_NAME    = EARTH
REF_FRAME      = TEME
TIME_SYSTEM    = UTC
MEAN_ELEMENT_THEORY = SGP/SGP4

EPOCH          = 2026-02-23T16:00:03.000096
MEAN_MOTION    = 15.90591361
ECCENTRICITY   = .000175
INCLINATION    = 42.9993
RA_OF_ASC_NODE = 357.4277
ARG_OF_PERICENTER = 258.5915
MEAN_ANOMALY   = 47.2292

EPHEMERIS_TYPE = 0
CLASSIFICATION_TYPE = U
NORAD_CAT_ID   = 67834
ELEMENT_SET_NO = 999
REV_AT_EPOCH   = 241
BSTAR          = -.55793E-2
MEAN_MOTION_DOT = -.1542152E-1
MEAN_MOTION_DDOT = 0

CCSDS_OMM_VERS = 2.0
CREATION_DATE  = 
ORIGINATOR     = 

OBJECT_NAME    = STARLINK-36657
OBJECT_ID      = 2026-033Q
CENTER_NAME    = EARTH
REF_FRAME      = TEME
TIME_SYSTEM    = UTC
MEAN_ELEMENT_THEORY = SGP/SGP4

EPOCH          = 2026-02-23T16:00:03.000096
MEAN_MOTION    = 15.90767178
ECCENTRICITY   = .0001842
INCLINATION    = 42.9994
RA_OF_ASC_NODE = 357.4210
ARG_OF_PERICENTER = 258.2398
MEAN_ANOMALY   = 50.1878

EPHEMERIS_TYPE = 0
CLASSIFICATION_TYPE = U
NORAD_CAT_ID   = 67835
ELEMENT_SET_NO = 999
REV_AT_EPOCH   = 241
BSTAR          = -.55114E-2
MEAN_MOTION_DOT = -.15382E-1
MEAN_MOTION_DDOT = 0

CCSDS_OMM_VERS = 2.0
CREATION_DATE  = 
ORIGINATOR     = 

OBJECT_NAME    = STARLINK-36650
OBJECT_ID      = 2026-033R
CENTER_NAME    = EARTH
REF_FRAME      = TEME
TIME_SYSTEM    = UTC
MEAN_ELEMENT_THEORY = SGP/SGP4

EPOCH          = 2026-02-23T16:00:03.000096
MEAN_MOTION    = 15.90943605
ECCENTRICITY   = .0001818
INCLINATION    = 42.9994
RA_OF_ASC_NODE = 357.4147
ARG_OF_PERICENTER = 262.2703
MEAN_ANOMALY   = 48.6890

EPHEMERIS_TYPE = 0
CLASSIFICATION_TYPE = U
NORAD_CAT_ID   = 67836
ELEMENT_SET_NO = 999
REV_AT_EPOCH   = 241
BSTAR          = -.54385E-2
MEAN_MOTION_DOT = -.1532788E-1
MEAN_MOTION_DDOT = 0

CCSDS_OMM_VERS = 2.0
CREATION_DATE  = 
ORIGINATOR     = 

OBJECT_NAME    = STARLINK-36649
OBJECT_ID      = 2026-033S
CENTER_NAME    = EARTH
REF_FRAME      = TEME
TIME_SYSTEM    = UTC
MEAN_ELEMENT_THEORY = SGP/SGP4

EPOCH          = 2026-02-23T16:00:03.000096
MEAN_MOTION    = 15.91105112
ECCENTRICITY   = .0001914
INCLINATION    = 42.9996
RA_OF_ASC_NODE = 357.4076
ARG_OF_PERICENTER = 256.2492
MEAN_ANOMALY   = 57.5183

EPHEMERIS_TYPE = 0
CLASSIFICATION_TYPE = U
NORAD_CAT_ID   = 67837
ELEMENT_SET_NO = 999
REV_AT_EPOCH   = 241
BSTAR          = -.53856E-2
MEAN_MOTION_DOT = -.1759594E-1
MEAN_MOTION_DDOT = .84404E-3

